{"type": "FeatureCollection", "features": [ {"type": "Feature", "properties": {"norad_id": 40701, "name": "GAOFEN-8", "group": "resource", "lat": 42.10625348259797, "lon": 6.483552599744034, "alt_km": 440.1415385095597, "timestamp": "2025-12-26T15:29:39.095523+00:00", "meta": {"OBJECT_NAME": "GAOFEN-8", "OBJECT_ID": "2015-030A", "EPOCH": "2025-12-26T07:05:54.202272", "MEAN_MOTION": 15.39041927, "ECCENTRICITY": 0.00115625, "INCLINATION": 97.6904, "RA_OF_ASC_NODE": 179.1017, "ARG_OF_PERICENTER": 91.7114, "MEAN_ANOMALY": 268.5455, "EPHEMERIS_TYPE": 0, "CLASSIFICATION_TYPE": "U", "NORAD_CAT_ID": 40701, "ELEMENT_SET_NO": 999, "REV_AT_EPOCH": 58479, "BSTAR": 0.00052587805, "MEAN_MOTION_DOT": 0.0002032, "MEAN_MOTION_DDOT": 0}, "tle": {"line1": "1 40701U 15030A   25360.29576623  .00020320  00000+0  52588-3 0  9994", "line2": "2 40701  97.6904 179.1017 0011562  91.7114 268.5455 15.39041927584792"}}, "geometry": {"type": "Point", "coordinates": [6.483552599744034, 42.10625348259797]}}, {"type": "Feature", "properties": {"norad_id": 40718, "name": "CARBONITE 1 (CBNT-1)", "group": "resource", "lat": 30.490652986604182, "lon": 5.61144149691266, "alt_km": 608.3576405136691, "timestamp": "2025-12-26T15:29:39.095533+00:00", "meta": {"OBJECT_NAME": "CARBONITE 1 (CBNT-1)", "OBJECT_ID": "2015-032D", "EPOCH": "2025-12-26T06:43:36.865056", "MEAN_MOTION": 14.82805096, "ECCENTRICITY": 0.00154399, "INCLINATION": 97.6409, "RA_OF_ASC_NODE": 180.7285, "ARG_OF_PERICENTER": 137.8038, "MEAN_ANOMALY": 222.4368, "EPHEMERIS_TYPE": 0, "CLASSIFICATION_TYPE": "U", "NORAD_CAT_ID": 40718, "ELEMENT_SET_NO": 999, "REV_AT_EPOCH": 56371, "BSTAR": 0.00013670974, "MEAN_MOTION_DOT": 1.057e-05, "MEAN_MOTION_DDOT": 0}, "tle": {"line1": "1 40718U 15032D   25360.28028779  .00001057  00000+0  13671-3 0  9993", "line2": "2 40718  97.6409 180.7285 0015439 137.8038 222.4368 14.82805096563712"}}, "geometry": {"type": "Point", "coordinates": [5.61144149691266, 30.490652986604182]}}, {"type": "Feature", "properties": {"norad_id": 40878, "name": "YAOGAN-27", "group": "resource", "lat": 24.629163674665254, "lon": 174.32495200682996, "alt_km": 1199.6618619552173, "timestamp": "2025-12-26T15:29:39.095543+00:00", "meta": {"OBJECT_NAME": "YAOGAN-27", "OBJECT_ID": "2015-040A", "EPOCH": "2025-12-26T07:24:39.663360", "MEAN_MOTION": 13.16061753, "ECCENTRICITY": 0.00075821, "INCLINATION": 100.1024, "RA_OF_ASC_NODE": 349.3154, "ARG_OF_PERICENTER": 253.2621, "MEAN_ANOMALY": 106.7661, "EPHEMERIS_TYPE": 0, "CLASSIFICATION_TYPE": "U", "NORAD_CAT_ID": 40878, "ELEMENT_SET_NO": 999, "REV_AT_EPOCH": 49492, "BSTAR": 8.131929e-05, "MEAN_MOTION_DOT": -1.1e-07, "MEAN_MOTION_DDOT": 0}, "tle": {"line1": "1 40878U 15040A   25360.30879240 -.00000011  00000+0  81319-4 0  9994", "line2": "2 40878 100.1024 349.3154 0007582 253.2621 106.7661 13.16061753494927"}}, "geometry": {"type": "Point", "coordinates": [174.32495200682996, 24.629163674665254]}}, {"type": "Feature", "properties": {"norad_id": 40894, "name": "GAOFEN-9 01", "group": "resource", "lat": 52.595027114451995, "lon": 28.872719345149367, "alt_km": 608.3222296832673, "timestamp": "2025-12-26T15:29:39.095553+00:00", "meta": {"OBJECT_NAME": "GAOFEN-9 01", "OBJECT_ID": "2015-047A", "EPOCH": "2025-12-26T07:09:21.914784", "MEAN_MOTION": 14.82454831, "ECCENTRICITY": 0.00272818, "INCLINATION": 97.6526, "RA_OF_ASC_NODE": 38.6671, "ARG_OF_PERICENTER": 350.3247, "MEAN_ANOMALY": 9.7438, "EPHEMERIS_TYPE": 0, "CLASSIFICATION_TYPE": "U", "NORAD_CAT_ID": 40894, "ELEMENT_SET_NO": 999, "REV_AT_EPOCH": 55457, "BSTAR": 0.00015392532, "MEAN_MOTION_DOT": 1.191e-05, "MEAN_MOTION_DDOT": 0}, "tle": {"line1": "1 40894U 15047A   25360.29817031  .00001191  00000+0  15393-3 0  9994", "line2": "2 40894  97.6526  38.6671 0027281 350.3247   9.7438 14.82454831554574"}}, "geometry": {"type": "Point", "coordinates": [28.872719345149367, 52.595027114451995]}}, {"type": "Feature", "properties": {"norad_id": 41026, "name": "YAOGAN-28", "group": "resource", "lat": 34.76783384041409, "lon": -36.860167997770574, "alt_km": 485.90740700876904, "timestamp": "2025-12-26T15:29:39.095563+00:00", "meta": {"OBJECT_NAME": "YAOGAN-28", "OBJECT_ID": "2015-064A", "EPOCH": "2025-12-26T06:59:10.105152", "MEAN_MOTION": 15.24566569, "ECCENTRICITY": 0.00126505, "INCLINATION": 97.2815, "RA_OF_ASC_NODE": 137.7029, "ARG_OF_PERICENTER": 83.0708, "MEAN_ANOMALY": 277.1969, "EPHEMERIS_TYPE": 0, "CLASSIFICATION_TYPE": "U", "NORAD_CAT_ID": 41026, "ELEMENT_SET_NO": 999, "REV_AT_EPOCH": 56431, "BSTAR": 0.00033257706, "MEAN_MOTION_DOT": 8.142e-05, "MEAN_MOTION_DDOT": 0}, "tle": {"line1": "1 41026U 15064A   25360.29108918  .00008142  00000+0  33258-3 0  9991", "line2": "2 41026  97.2815 137.7029 0012650  83.0708 277.1969 15.24566569564315"}}, "geometry": {"type": "Point", "coordinates": [-36.860167997770574, 34.76783384041409]}}, {"type": "Feature", "properties": {"norad_id": 41038, "name": "YAOGAN-29", "group": "resource", "lat": -35.821359753521754, "lon": 29.70251251934886, "alt_km": 627.1675292323789, "timestamp": "2025-12-26T15:29:39.095573+00:00", "meta": {"OBJECT_NAME": "YAOGAN-29", "OBJECT_ID": "2015-069A", "EPOCH": "2025-12-26T07:33:36.382752", "MEAN_MOTION": 14.8289949, "ECCENTRICITY": 9.69e-05, "INCLINATION": 98.0208, "RA_OF_ASC_NODE": 23.5294, "ARG_OF_PERICENTER": 159.2025, "MEAN_ANOMALY": 200.9228, "EPHEMERIS_TYPE": 0, "CLASSIFICATION_TYPE": "U", "NORAD_CAT_ID": 41038, "ELEMENT_SET_NO": 999, "REV_AT_EPOCH": 54500, "BSTAR": 0.00013867281, "MEAN_MOTION_DOT": 1.07e-05, "MEAN_MOTION_DDOT": 0}, "tle": {"line1": "1 41038U 15069A   25360.31500443  .00001070  00000+0  13867-3 0  9998", "line2": "2 41038  98.0208  23.5294 0000969 159.2025 200.9228 14.82899490545009"}}, "geometry": {"type": "Point", "coordinates": [29.70251251934886, -35.821359753521754]}}, {"type": "Feature", "properties": {"norad_id": 41167, "name": "KENT RIDGE 1", "group": "resource", "lat": -11.343986992070976, "lon": -23.425047610607912, "alt_km": 499.92755518243666, "timestamp": "2025-12-26T15:29:39.095583+00:00", "meta": {"OBJECT_NAME": "KENT RIDGE 1", "OBJECT_ID": "2015-077B", "EPOCH": "2025-12-25T16:28:00.882048", "MEAN_MOTION": 15.21731933, "ECCENTRICITY": 0.00085371, "INCLINATION": 14.9792, "RA_OF_ASC_NODE": 115.0675, "ARG_OF_PERICENTER": 313.4673, "MEAN_ANOMALY": 46.4939, "EPHEMERIS_TYPE": 0, "CLASSIFICATION_TYPE": "U", "NORAD_CAT_ID": 41167, "ELEMENT_SET_NO": 999, "REV_AT_EPOCH": 55461, "BSTAR": 0.00017413045, "MEAN_MOTION_DOT": 4.822e-05, "MEAN_MOTION_DDOT": 0}, "tle": {"line1": "1 41167U 15077B   25359.68612132  .00004822  00000+0  17413-3 0  9996", "line2": "2 41167  14.9792 115.0675 0008537 313.4673  46.4939 15.21731933554619"}}, "geometry": {"type": "Point", "coordinates": [-23.425047610607912, -11.343986992070976]}}, {"type": "Feature", "properties": {"norad_id": 41194, "name": "GAOFEN-4", "group": "resource", "lat": -0.01335424170102731, "lon": 73.46237437707182, "alt_km": 35789.33048956598, "timestamp": "2025-12-26T15:29:39.095595+00:00", "meta": {"OBJECT_NAME": "GAOFEN-4", "OBJECT_ID": "2015-083A", "EPOCH": "2025-12-26T03:11:38.639904", "MEAN_MOTION": 1.0026946, "ECCENTRICITY": 0.00028259, "INCLINATION": 0.2025, "RA_OF_ASC_NODE": 81.9278, "ARG_OF_PERICENTER": 93.875, "MEAN_ANOMALY": 72.6955, "EPHEMERIS_TYPE": 0, "CLASSIFICATION_TYPE": "U", "NORAD_CAT_ID": 41194, "ELEMENT_SET_NO": 999, "REV_AT_EPOCH": 3679, "BSTAR": 0, "MEAN_MOTION_DOT": -3.13e-06, "MEAN_MOTION_DDOT": 0}, "tle": {"line1": "1 41194U 15083A   25360.13308611 -.00000313  00000+0  00000+0 0  9991", "line2": "2 41194   0.2025  81.9278 0002825  93.8750  72.6955  1.00269460 36791"}}, "geometry": {"type": "Point", "coordinates": [73.46237437707182, -0.01335424170102731]}}, {"type": "Feature", "properties": {"norad_id": 41240, "name": "JASON-3", "group": "resource", "lat": -31.552217379547795, "lon": 112.74453727035515, "alt_km": 1312.6684697287128, "timestamp": "2025-12-26T15:29:39.095607+00:00", "meta": {"OBJECT_NAME": "JASON-3", "OBJECT_ID": "2016-002A", "EPOCH": "2025-12-26T06:21:16.899552", "MEAN_MOTION": 12.87627127, "ECCENTRICITY": 0.00073218, "INCLINATION": 66.0407, "RA_OF_ASC_NODE": 129.3893, "ARG_OF_PERICENTER": 271.6262, "MEAN_ANOMALY": 88.3918, "EPHEMERIS_TYPE": 0, "CLASSIFICATION_TYPE": "U", "NORAD_CAT_ID": 41240, "ELEMENT_SET_NO": 999, "REV_AT_EPOCH": 46498, "BSTAR": 0.00015903742, "MEAN_MOTION_DOT": -2.2e-07, "MEAN_MOTION_DDOT": 0}, "tle": {"line1": "1 41240U 16002A   25360.26477893 -.00000022  00000+0  15904-3 0  9998", "line2": "2 41240  66.0407 129.3893 0007321 271.6262  88.3918 12.87627127464981"}}, "geometry": {"type": "Point", "coordinates": [112.74453727035515, -31.552217379547795]}}, {"type": "Feature", "properties": {"norad_id": 41335, "name": "SENTINEL-3A", "group": "resource", "lat": 79.26809788214904, "lon": -61.28553466787717, "alt_km": 794.6470077040112, "timestamp": "2025-12-26T15:29:39.095617+00:00", "meta": {"OBJECT_NAME": "SENTINEL-3A", "OBJECT_ID": "2016-011A", "EPOCH": "2025-12-26T06:37:42.853152", "MEAN_MOTION": 14.26735837, "ECCENTRICITY": 8.844e-05, "INCLINATION": 98.6296, "RA_OF_ASC_NODE": 65.0998, "ARG_OF_PERICENTER": 97.6461, "MEAN_ANOMALY": 262.482, "EPHEMERIS_TYPE": 0, "CLASSIFICATION_TYPE": "U", "NORAD_CAT_ID": 41335, "ELEMENT_SET_NO": 999, "REV_AT_EPOCH": 51340, "BSTAR": 7.5955615e-05, "MEAN_MOTION_DOT": 1.4e-06, "MEAN_MOTION_DDOT": 0}, "tle": {"line1": "1 41335U 16011A   25360.27619043  .00000140  00000+0  75956-4 0  9993", "line2": "2 41335  98.6296  65.0998 0000884  97.6461 262.4820 14.26735837513401"}}, "geometry": {"type": "Point", "coordinates": [-61.28553466787717, 79.26809788214904]}}]}